{
  "type": "FeatureCollection",
  "features": [
    {
      "type": "Feature",
      "properties": {
        "OBJECT_NAME": "EXPRESS 80",
        "OBJECT_ID": "2020-053B",
        "EPOCH": "2025-11-27T14:13:09.994656",
        "MEAN_MOTION": 1.00270305,
        "ECCENTRICITY": 0.00021035,
        "INCLINATION": 0.0111,
        "RA_OF_ASC_NODE": 327.3969,
        "ARG_OF_PERICENTER": 70.1943,
        "MEAN_ANOMALY": 322.4235,
        "EPHEMERIS_TYPE": 0,
        "CLASSIFICATION_TYPE": "U",
        "NORAD_CAT_ID": 45986,
        "ELEMENT_SET_NO": 999,
        "REV_AT_EPOCH": 1961,
        "BSTAR": 0,
        "MEAN_MOTION_DOT": 0,
        "MEAN_MOTION_DDOT": 0,
        "norad_id": 45986,
        "name": "EXPRESS 80",
        "group": "active",
        "longitude_deg": NaN,
        "latitude_deg": NaN,
        "alt_km": NaN,
        "orbit_class": "HEO",
        "timestamp": "2025-11-30T05:40:21.624992+00:00"
      },
      "geometry": {
        "type": "Point",
        "coordinates": [
          NaN,
          NaN
        ]
      }
    },
    {
      "type": "Feature",
      "properties": {
        "OBJECT_NAME": "GAOFEN-9 04",
        "OBJECT_ID": "2020-054A",
        "EPOCH": "2025-11-29T20:23:50.323200",
        "MEAN_MOTION": 15.32227626,
        "ECCENTRICITY": 0.0013195,
        "INCLINATION": 97.2706,
        "RA_OF_ASC_NODE": 41.0423,
        "ARG_OF_PERICENTER": 88.1013,
        "MEAN_ANOMALY": 272.174,
        "EPHEMERIS_TYPE": 0,
        "CLASSIFICATION_TYPE": "U",
        "NORAD_CAT_ID": 46025,
        "ELEMENT_SET_NO": 999,
        "REV_AT_EPOCH": 29578,
        "BSTAR": 0.00038181,
        "MEAN_MOTION_DOT": 0.00011841,
        "MEAN_MOTION_DDOT": 0,
        "norad_id": 46025,
        "name": "GAOFEN-9 04",
        "group": "active",
        "longitude_deg": NaN,
        "latitude_deg": NaN,
        "alt_km": NaN,
        "orbit_class": "HEO",
        "timestamp": "2025-11-30T05:40:21.624999+00:00"
      },
      "geometry": {
        "type": "Point",
        "coordinates": [
          NaN,
          NaN
        ]
      }
    },
    {
      "type": "Feature",
      "properties": {
        "OBJECT_NAME": "BSAT-4B",
        "OBJECT_ID": "2020-056A",
        "EPOCH": "2025-11-28T10:59:56.821056",
        "MEAN_MOTION": 1.00272265,
        "ECCENTRICITY": 0.00024589,
        "INCLINATION": 0.0571,
        "RA_OF_ASC_NODE": 116.7954,
        "ARG_OF_PERICENTER": 71.936,
        "MEAN_ANOMALY": 153.746,
        "EPHEMERIS_TYPE": 0,
        "CLASSIFICATION_TYPE": "U",
        "NORAD_CAT_ID": 46112,
        "ELEMENT_SET_NO": 999,
        "REV_AT_EPOCH": 1937,
        "BSTAR": 0,
        "MEAN_MOTION_DOT": -3.3e-06,
        "MEAN_MOTION_DDOT": 0,
        "norad_id": 46112,
        "name": "BSAT-4B",
        "group": "active",
        "longitude_deg": NaN,
        "latitude_deg": NaN,
        "alt_km": NaN,
        "orbit_class": "HEO",
        "timestamp": "2025-11-30T05:40:21.625241+00:00"
      },
      "geometry": {
        "type": "Point",
        "coordinates": [
          NaN,
          NaN
        ]
      }
    },
    {
      "type": "Feature",
      "properties": {
        "OBJECT_NAME": "MEV-2",
        "OBJECT_ID": "2020-056B",
        "EPOCH": "2025-11-29T05:18:25.792704",
        "MEAN_MOTION": 1.00270275,
        "ECCENTRICITY": 8.906e-05,
        "INCLINATION": 0.0291,
        "RA_OF_ASC_NODE": 70.3595,
        "ARG_OF_PERICENTER": 195.9179,
        "MEAN_ANOMALY": 240.7201,
        "EPHEMERIS_TYPE": 0,
        "CLASSIFICATION_TYPE": "U",
        "NORAD_CAT_ID": 46113,
        "ELEMENT_SET_NO": 999,
        "REV_AT_EPOCH": 1917,
        "BSTAR": 0,
        "MEAN_MOTION_DOT": 1e-07,
        "MEAN_MOTION_DDOT": 0,
        "norad_id": 46113,
        "name": "MEV-2",
        "group": "active",
        "longitude_deg": NaN,
        "latitude_deg": NaN,
        "alt_km": NaN,
        "orbit_class": "HEO",
        "timestamp": "2025-11-30T05:40:21.625248+00:00"
      },
      "geometry": {
        "type": "Point",
        "coordinates": [
          NaN,
          NaN
        ]
      }
    },
    {
      "type": "Feature",
      "properties": {
        "OBJECT_NAME": "GAOFEN-9 05",
        "OBJECT_ID": "2020-058A",
        "EPOCH": "2025-11-29T19:58:58.775808",
        "MEAN_MOTION": 15.28456238,
        "ECCENTRICITY": 0.001081,
        "INCLINATION": 97.2387,
        "RA_OF_ASC_NODE": 14.5574,
        "ARG_OF_PERICENTER": 87.7549,
        "MEAN_ANOMALY": 272.4929,
        "EPHEMERIS_TYPE": 0,
        "CLASSIFICATION_TYPE": "U",
        "NORAD_CAT_ID": 46232,
        "ELEMENT_SET_NO": 999,
        "REV_AT_EPOCH": 29312,
        "BSTAR": 0.00028531,
        "MEAN_MOTION_DOT": 7.844e-05,
        "MEAN_MOTION_DDOT": 0,
        "norad_id": 46232,
        "name": "GAOFEN-9 05",
        "group": "active",
        "longitude_deg": NaN,
        "latitude_deg": NaN,
        "alt_km": NaN,
        "orbit_class": "HEO",
        "timestamp": "2025-11-30T05:40:21.625444+00:00"
      },
      "geometry": {
        "type": "Point",
        "coordinates": [
          NaN,
          NaN
        ]
      }
    },
    {
      "type": "Feature",
      "properties": {
        "OBJECT_NAME": "SAOCOM 1B",
        "OBJECT_ID": "2020-059A",
        "EPOCH": "2025-11-29T19:24:25.496352",
        "MEAN_MOTION": 14.82163185,
        "ECCENTRICITY": 0.0001362,
        "INCLINATION": 97.8844,
        "RA_OF_ASC_NODE": 157.5202,
        "ARG_OF_PERICENTER": 91.0411,
        "MEAN_ANOMALY": 269.0958,
        "EPHEMERIS_TYPE": 0,
        "CLASSIFICATION_TYPE": "U",
        "NORAD_CAT_ID": 46265,
        "ELEMENT_SET_NO": 999,
        "REV_AT_EPOCH": 28395,
        "BSTAR": 7.0803e-05,
        "MEAN_MOTION_DOT": 5.12e-06,
        "MEAN_MOTION_DDOT": 0,
        "norad_id": 46265,
        "name": "SAOCOM 1B",
        "group": "active",
        "longitude_deg": NaN,
        "latitude_deg": NaN,
        "alt_km": NaN,
        "orbit_class": "HEO",
        "timestamp": "2025-11-30T05:40:21.625451+00:00"
      },
      "geometry": {
        "type": "Point",
        "coordinates": [
          NaN,
          NaN
        ]
      }
    },
    {
      "type": "Feature",
      "properties": {
        "OBJECT_NAME": "GNOMES-1",
        "OBJECT_ID": "2020-059B",
        "EPOCH": "2025-11-29T15:21:15.105888",
        "MEAN_MOTION": 14.9900739,
        "ECCENTRICITY": 0.0003687,
        "INCLINATION": 97.8042,
        "RA_OF_ASC_NODE": 178.6784,
        "ARG_OF_PERICENTER": 281.7365,
        "MEAN_ANOMALY": 78.3444,
        "EPHEMERIS_TYPE": 0,
        "CLASSIFICATION_TYPE": "U",
        "NORAD_CAT_ID": 46266,
        "ELEMENT_SET_NO": 999,
        "REV_AT_EPOCH": 28568,
        "BSTAR": 0.00027512,
        "MEAN_MOTION_DOT": 3.274e-05,
        "MEAN_MOTION_DDOT": 0,
        "norad_id": 46266,
        "name": "GNOMES-1",
        "group": "active",
        "longitude_deg": NaN,
        "latitude_deg": NaN,
        "alt_km": NaN,
        "orbit_class": "HEO",
        "timestamp": "2025-11-30T05:40:21.625458+00:00"
      },
      "geometry": {
        "type": "Point",
        "coordinates": [
          NaN,
          NaN
        ]
      }
    },
    {
      "type": "Feature",
      "properties": {
        "OBJECT_NAME": "TYVAK-0172",
        "OBJECT_ID": "2020-059C",
        "EPOCH": "2025-11-29T14:37:09.264000",
        "MEAN_MOTION": 15.4829614,
        "ECCENTRICITY": 0.0001346,
        "INCLINATION": 97.7293,
        "RA_OF_ASC_NODE": 202.9479,
        "ARG_OF_PERICENTER": 40.0145,
        "MEAN_ANOMALY": 320.1203,
        "EPHEMERIS_TYPE": 0,
        "CLASSIFICATION_TYPE": "U",
        "NORAD_CAT_ID": 46267,
        "ELEMENT_SET_NO": 999,
        "REV_AT_EPOCH": 28756,
        "BSTAR": 0.00064118,
        "MEAN_MOTION_DOT": 0.00033855,
        "MEAN_MOTION_DDOT": 0,
        "norad_id": 46267,
        "name": "TYVAK-0172",
        "group": "active",
        "longitude_deg": NaN,
        "latitude_deg": NaN,
        "alt_km": NaN,
        "orbit_class": "HEO",
        "timestamp": "2025-11-30T05:40:21.625465+00:00"
      },
      "geometry": {
        "type": "Point",
        "coordinates": [
          NaN,
          NaN
        ]
      }
    },
    {
      "type": "Feature",
      "properties": {
        "OBJECT_NAME": "ION-MK01",
        "OBJECT_ID": "2020-061C",
        "EPOCH": "2025-11-29T17:13:26.441760",
        "MEAN_MOTION": 15.65702776,
        "ECCENTRICITY": 4.6e-05,
        "INCLINATION": 97.2207,
        "RA_OF_ASC_NODE": 43.8131,
        "ARG_OF_PERICENTER": 322.5103,
        "MEAN_ANOMALY": 37.6125,
        "EPHEMERIS_TYPE": 0,
        "CLASSIFICATION_TYPE": "U",
        "NORAD_CAT_ID": 46274,
        "ELEMENT_SET_NO": 999,
        "REV_AT_EPOCH": 29191,
        "BSTAR": 0.00058607,
        "MEAN_MOTION_DOT": 0.00059288,
        "MEAN_MOTION_DDOT": 0,
        "norad_id": 46274,
        "name": "ION-MK01",
        "group": "active",
        "longitude_deg": NaN,
        "latitude_deg": NaN,
        "alt_km": NaN,
        "orbit_class": "HEO",
        "timestamp": "2025-11-30T05:40:21.625471+00:00"
      },
      "geometry": {
        "type": "Point",
        "coordinates": [
          NaN,
          NaN
        ]
      }
    }
  ]
}